H1 CPF  1  MCC 2022  5 16 14  6361 larets
H2  0304206 5557    27944 2022 05 15 23 45 00 2022 05 20 23 57 00   180 1 1  0 0 0
H9
10 0 59717 79740.000000 0     -1529192.979     -4119820.665      5523975.871
10 0 59717 79920.000000 0     -2211318.903     -4870357.524      4610816.889
10 0 59717 80100.000000 0     -2830253.159     -5426851.859      3528899.200
10 0 59717 80280.000000 0     -3358192.390     -5771142.937      2317843.723
10 0 59717 80460.000000 0     -3770299.683     -5893506.402      1021992.406
10 0 59717 80640.000000 0     -4045843.444     -5792925.478      -311232.942
10 0 59717 80820.000000 0     -4169183.873     -5477004.980     -1633096.615
10 0 59717 81000.000000 0     -4130554.546     -4961528.765     -2895366.553
10 0 59717 81180.000000 0     -3926597.296     -4269682.316     -4052098.941
10 0 59717 81360.000000 0     -3560626.263     -3430990.538     -5061308.773
10 0 59717 81540.000000 0     -3042617.087     -2480033.770     -5886463.668
10 0 59717 81720.000000 0     -2388928.842     -1455006.098     -6497753.841
10 0 59717 81900.000000 0     -1621774.279      -396181.612     -6873106.929
10 0 59717 82080.000000 0      -768461.450       655649.643     -6998923.113
10 0 59717 82260.000000 0       139560.276      1660717.303     -6870528.430
10 0 59717 82440.000000 0      1067825.896      2581738.089     -6492349.086
10 0 59717 82620.000000 0      1980128.770      3385279.070     -5877801.118
10 0 59717 82800.000000 0      2839908.202      4042976.002     -5048879.744
10 0 59717 82980.000000 0      3611704.071      4532563.672     -4035452.171
10 0 59717 83160.000000 0      4262630.388      4838683.422     -2874256.408
10 0 59717 83340.000000 0      4763806.045      4953422.756     -1607616.336
10 0 59717 83520.000000 0      5091669.027      4876551.899      -281909.072
10 0 59717 83700.000000 0      5229102.409      4615435.565      1054162.794
10 0 59717 83880.000000 0      5166301.929      4184617.271      2351416.117
10 0 59717 84060.000000 0      4901343.036      3605094.859      3562068.774
10 0 59717 84240.000000 0      4440402.166      2903317.066      4641569.398
10 0 59717 84420.000000 0      3797624.509      2109962.133      5550279.723
10 0 59717 84600.000000 0      2994650.736      1258569.143      6254943.970
10 0 59717 84780.000000 0      2059830.542       384090.426      6729884.937
10 0 59717 84960.000000 0      1027173.761      -478560.549      6957896.454
10 0 59717 85140.000000 0       -64920.858     -1295907.822      6930827.548
10 0 59717 85320.000000 0     -1175115.207     -2037214.354      6649839.691
10 0 59717 85500.000000 0     -2260703.674     -2675635.978      6125335.983
10 0 59717 85680.000000 0     -3279251.288     -3189190.131      5376579.715
10 0 59717 85860.000000 0     -4190261.402     -3561519.744      4431012.837
10 0 59717 86040.000000 0     -4956806.035     -3782418.765      3323266.941
10 0 59717 86220.000000 0     -5547042.707     -3848097.492      2093906.841
10 0 59718     0.000000 0     -5935560.106     -3761181.286       787944.325
10 0 59718   180.000000 0     -6104482.920     -3530436.240      -546832.355
10 0 59718   360.000000 0     -6044277.620     -3170234.229     -1861641.269
10 0 59718   540.000000 0     -5754213.680     -2699784.152     -3108526.710
10 0 59718   720.000000 0     -5242458.555     -2142172.837     -4242126.551
10 0 59718   900.000000 0     -4525814.429     -1523271.191     -5221315.113
10 0 59718  1080.000000 0     -3629117.006      -870561.433     -6010662.547
10 0 59718  1260.000000 0     -2584329.630      -211940.432     -6581661.863
10 0 59718  1440.000000 0     -1429380.092       425445.753     -6913692.113
10 0 59718  1620.000000 0      -206788.426      1016288.997     -6994703.885
10 0 59718  1800.000000 0      1037864.412      1538096.249     -6821624.195
10 0 59718  1980.000000 0      2257590.238      1972028.526     -6400483.964
10 0 59718  2160.000000 0      3405734.123      2303580.732     -5746253.550
10 0 59718  2340.000000 0      4437742.898      2523076.571     -4882377.722
10 0 59718  2520.000000 0      5312908.049      2625963.014     -3840017.446
10 0 59718  2700.000000 0      5996019.979      2612889.938     -2656995.402
10 0 59718  2880.000000 0      6458856.544      2489565.585     -1376467.910
10 0 59718  3060.000000 0      6681430.251      2266387.066       -45353.538
10 0 59718  3240.000000 0      6652914.682      1957855.655      1287422.620
10 0 59718  3420.000000 0      6372190.728      1581804.695      2572787.284
10 0 59718  3600.000000 0      5847984.303      1158481.598      3763398.344
10 0 59718  3780.000000 0      5098574.651       709530.169      4815454.346
10 0 59718  3960.000000 0      4151095.880       256933.327      5690343.122
10 0 59718  4140.000000 0      3040477.453      -178028.301      6356066.242
10 0 59718  4320.000000 0      1808079.228      -575748.620      6788383.761
10 0 59718  4500.000000 0       500096.557      -919155.749      6971656.768
10 0 59718  4680.000000 0      -834208.676     -1194429.868      6899371.916
10 0 59718  4860.000000 0     -2144379.356     -1391551.007      6574336.348
10 0 59718  5040.000000 0     -3380670.100     -1504657.835      6008552.683
10 0 59718  5220.000000 0     -4495936.792     -1532208.788      5222788.928
10 0 59718  5400.000000 0     -5447454.954     -1476947.511      4245838.933
10 0 59718  5580.000000 0     -6198587.469     -1345669.300      3113483.412
10 0 59718  5760.000000 0     -6720230.678     -1148797.657      1867189.694
10 0 59718  5940.000000 0     -6991984.916      -899793.313       552589.920
10 0 59718  6120.000000 0     -7002980.807      -614421.447      -782217.806
10 0 59718  6300.000000 0     -6752313.551      -309914.191     -2088465.332
10 0 59718  6480.000000 0     -6249068.139        -4073.829     -3318525.906
10 0 59718  6660.000000 0     -5511943.254       285636.075     -4427667.015
10 0 59718  6840.000000 0     -4568489.991       542968.418     -5375669.891
10 0 59718  7020.000000 0     -3454017.593       753693.997     -6128249.128
10 0 59718  7200.000000 0     -2210226.927       906288.617     -6658231.930
10 0 59718  7380.000000 0      -883637.348       992479.664     -6946472.027
10 0 59718  7560.000000 0       476134.684      1007635.864     -6982486.450
10 0 59718  7740.000000 0      1818186.068       950986.028     -6764812.613
10 0 59718  7920.000000 0      3092189.277       825660.757     -6301086.761
10 0 59718  8100.000000 0      4250252.904       638554.090     -5607822.621
10 0 59718  8280.000000 0      5248719.031       400006.114     -4709894.601
10 0 59718  8460.000000 0      6049845.874       123315.954     -3639726.969
10 0 59718  8640.000000 0      6623305.996      -175900.646     -2436189.145
10 0 59718  8820.000000 0      6947429.069      -480485.159     -1143222.090
10 0 59718  9000.000000 0      7010117.643      -772606.338       191770.218
10 0 59718  9180.000000 0      6809374.362     -1034682.555      1519698.503
10 0 59718  9360.000000 0      6353404.486     -1250309.253      2791658.811
10 0 59718  9540.000000 0      5660277.072     -1405138.142      3960808.669
10 0 59718  9720.000000 0      4757162.671     -1487659.365      4984151.159
10 0 59718  9900.000000 0      3679197.094     -1489845.713      5824147.739
10 0 59718 10080.000000 0      2468035.935     -1407623.864      6450096.296
10 0 59718 10260.000000 0      1170175.176     -1241157.265      6839226.314
10 0 59718 10440.000000 0      -164883.493      -994929.315      6977486.110
10 0 59718 10620.000000 0     -1486548.232      -677622.687      6860005.102
10 0 59718 10800.000000 0     -2745059.022      -301803.212      6491232.972
10 0 59718 10980.000000 0     -3893358.148       116581.469      5884763.980
10 0 59718 11160.000000 0     -4888856.673       558870.371      5062849.916
10 0 59718 11340.000000 0     -5695036.772      1004500.585      4055604.443
10 0 59718 11520.000000 0     -6282825.186      1431931.396      2899916.990
10 0 59718 11700.000000 0     -6631679.446      1819642.073      1638109.549
10 0 59718 11880.000000 0     -6730341.256      2147156.730       316378.381
10 0 59718 12060.000000 0     -6577214.117      2396046.540     -1016925.754
10 0 59718 12240.000000 0     -6180340.477      2550854.690     -2313102.177
10 0 59718 12420.000000 0     -5556985.355      2599899.533     -3524909.979
10 0 59718 12600.000000 0     -4732846.357      2535913.622     -4608304.922
10 0 59718 12780.000000 0     -3740941.154      2356486.678     -5524024.342
10 0 59718 12960.000000 0     -2620239.777      2064299.181     -6238963.523
10 0 59718 13140.000000 0     -1414112.302      1667141.570     -6727310.748
10 0 59718 13320.000000 0      -168652.063      1177718.624     -6971414.719
10 0 59718 13500.000000 0      1069055.204       613250.172     -6962371.025
10 0 59718 13680.000000 0      2252668.643        -5117.791     -6700333.465
10 0 59718 13860.000000 0      3338294.316      -653081.510     -6194535.308
10 0 59718 14040.000000 0      4286096.649     -1304104.730     -5463015.223
10 0 59718 14220.000000 0      5061772.542     -1930475.912     -4532050.168
10 0 59718 14400.000000 0      5637842.114     -2504468.350     -3435292.779
10 0 59718 14580.000000 0      5994696.878     -2999555.555     -2212617.390
10 0 59718 14760.000000 0      6121350.339     -3391627.252      -908698.895
10 0 59718 14940.000000 0      6015842.558     -3660144.771       428629.078
10 0 59718 15120.000000 0      5685268.355     -3789174.214      1750173.441
10 0 59718 15300.000000 0      5145415.608     -3768236.650      3007262.032
10 0 59718 15480.000000 0      4420023.660     -3592920.169      4153608.251
10 0 59718 15660.000000 0      3539713.203     -3265224.557      5147068.996
10 0 59718 15840.000000 0      2540642.935     -2793624.381      5951223.084
10 0 59718 16020.000000 0      1462967.027     -2192846.199      6536701.654
10 0 59718 16200.000000 0       349174.350     -1483380.088      6882229.232
99
